CCSDS_OMM_VERS = 2.0
CREATION_DATE  = 
ORIGINATOR     = 

OBJECT_NAME    = IDEFIX & ARIANE 42P R/B
OBJECT_ID      = 2002-021B
CENTER_NAME    = EARTH
REF_FRAME      = TEME
TIME_SYSTEM    = UTC
MEAN_ELEMENT_THEORY = SGP/SGP4

EPOCH          = 2026-02-14T10:07:52.570272
MEAN_MOTION    = 14.31009265
ECCENTRICITY   = .0010617
INCLINATION    = 98.5846
RA_OF_ASC_NODE = 344.3099
ARG_OF_PERICENTER = 255.6700
MEAN_ANOMALY   = 104.3305

EPHEMERIS_TYPE = 0
CLASSIFICATION_TYPE = U
NORAD_CAT_ID   = 27422
ELEMENT_SET_NO = 999
REV_AT_EPOCH   = 24069
BSTAR          = .13688E-3
MEAN_MOTION_DOT = .316E-5
MEAN_MOTION_DDOT = 0

CCSDS_OMM_VERS = 2.0
CREATION_DATE  = 
ORIGINATOR     = 

OBJECT_NAME    = AQUA
OBJECT_ID      = 2002-022A
CENTER_NAME    = EARTH
REF_FRAME      = TEME
TIME_SYSTEM    = UTC
MEAN_ELEMENT_THEORY = SGP/SGP4

EPOCH          = 2026-02-14T11:48:12.453120
MEAN_MOTION    = 14.61918761
ECCENTRICITY   = .0001317
INCLINATION    = 98.4131
RA_OF_ASC_NODE = 12.4422
ARG_OF_PERICENTER = 49.4301
MEAN_ANOMALY   = 60.2593

EPHEMERIS_TYPE = 0
CLASSIFICATION_TYPE = U
NORAD_CAT_ID   = 27424
ELEMENT_SET_NO = 999
REV_AT_EPOCH   = 26534
BSTAR          = .24577E-3
MEAN_MOTION_DOT = .1181E-4
MEAN_MOTION_DDOT = 0

CCSDS_OMM_VERS = 2.0
CREATION_DATE  = 
ORIGINATOR     = 

OBJECT_NAME    = CZ-4B R/B
OBJECT_ID      = 2002-024C
CENTER_NAME    = EARTH
REF_FRAME      = TEME
TIME_SYSTEM    = UTC
MEAN_ELEMENT_THEORY = SGP/SGP4

EPOCH          = 2026-02-14T03:58:36.084288
MEAN_MOTION    = 14.14543310
ECCENTRICITY   = .00512119
INCLINATION    = 98.8894
RA_OF_ASC_NODE = 98.6848
ARG_OF_PERICENTER = 90.0252
MEAN_ANOMALY   = 336.0793

EPHEMERIS_TYPE = 0
CLASSIFICATION_TYPE = U
NORAD_CAT_ID   = 27432
ELEMENT_SET_NO = 999
REV_AT_EPOCH   = 22591
BSTAR          = .41239723E-4
MEAN_MOTION_DOT = .36E-6
MEAN_MOTION_DDOT = 0

CCSDS_OMM_VERS = 2.0
CREATION_DATE  = 
ORIGINATOR     = 

OBJECT_NAME    = MIDORI II (ADEOS-II)
OBJECT_ID      = 2002-056A
CENTER_NAME    = EARTH
REF_FRAME      = TEME
TIME_SYSTEM    = UTC
MEAN_ELEMENT_THEORY = SGP/SGP4

EPOCH          = 2026-02-14T10:07:37.591968
MEAN_MOTION    = 14.29267679
ECCENTRICITY   = .0002189
INCLINATION    = 98.7727
RA_OF_ASC_NODE = 3.7451
ARG_OF_PERICENTER = 74.2496
MEAN_ANOMALY   = 285.8926

EPHEMERIS_TYPE = 0
CLASSIFICATION_TYPE = U
NORAD_CAT_ID   = 27597
ELEMENT_SET_NO = 999
REV_AT_EPOCH   = 20697
BSTAR          = .15985E-3
MEAN_MOTION_DOT = .361E-5
MEAN_MOTION_DDOT = 0

CCSDS_OMM_VERS = 2.0
CREATION_DATE  = 
ORIGINATOR     = 

OBJECT_NAME    = H-2A R/B
OBJECT_ID      = 2002-056E
CENTER_NAME    = EARTH
REF_FRAME      = TEME
TIME_SYSTEM    = UTC
MEAN_ELEMENT_THEORY = SGP/SGP4

EPOCH          = 2026-02-14T11:27:24.007680
MEAN_MOTION    = 14.33744493
ECCENTRICITY   = .0069201
INCLINATION    = 98.3159
RA_OF_ASC_NODE = 6.7328
ARG_OF_PERICENTER = 230.2092
MEAN_ANOMALY   = 238.4574

EPHEMERIS_TYPE = 0
CLASSIFICATION_TYPE = U
NORAD_CAT_ID   = 27601
ELEMENT_SET_NO = 999
REV_AT_EPOCH   = 21078
BSTAR          = .13104E-3
MEAN_MOTION_DOT = .332E-5
MEAN_MOTION_DDOT = 0

CCSDS_OMM_VERS = 2.0
CREATION_DATE  = 
ORIGINATOR     = 

OBJECT_NAME    = CZ-4B R/B
OBJECT_ID      = 2003-049C
CENTER_NAME    = EARTH
REF_FRAME      = TEME
TIME_SYSTEM    = UTC
MEAN_ELEMENT_THEORY = SGP/SGP4

EPOCH          = 2026-02-14T09:57:29.280672
MEAN_MOTION    = 14.54995138
ECCENTRICITY   = .0047201
INCLINATION    = 98.6853
RA_OF_ASC_NODE = 39.4114
ARG_OF_PERICENTER = 303.6426
MEAN_ANOMALY   = 56.0271

EPHEMERIS_TYPE = 0
CLASSIFICATION_TYPE = U
NORAD_CAT_ID   = 28059
ELEMENT_SET_NO = 999
REV_AT_EPOCH   = 18321
BSTAR          = .13588E-3
MEAN_MOTION_DOT = .542E-5
MEAN_MOTION_DDOT = 0

CCSDS_OMM_VERS = 2.0
CREATION_DATE  = 
ORIGINATOR     = 

OBJECT_NAME    = CZ-2C R/B
OBJECT_ID      = 2004-012C
CENTER_NAME    = EARTH
REF_FRAME      = TEME
TIME_SYSTEM    = UTC
MEAN_ELEMENT_THEORY = SGP/SGP4

EPOCH          = 2026-02-14T02:44:03.158880
MEAN_MOTION    = 15.61778218
ECCENTRICITY   = .00153548
INCLINATION    = 97.7298
RA_OF_ASC_NODE = 108.2196
ARG_OF_PERICENTER = 41.2179
MEAN_ANOMALY   = 319.0234

EPHEMERIS_TYPE = 0
CLASSIFICATION_TYPE = U
NORAD_CAT_ID   = 28222
ELEMENT_SET_NO = 999
REV_AT_EPOCH   = 20059
BSTAR          = .55139592E-3
MEAN_MOTION_DOT = .48026E-3
MEAN_MOTION_DDOT = 0

CCSDS_OMM_VERS = 2.0
CREATION_DATE  = 
ORIGINATOR     = 

OBJECT_NAME    = SL-16 R/B
OBJECT_ID      = 2004-021B
CENTER_NAME    = EARTH
REF_FRAME      = TEME
TIME_SYSTEM    = UTC
MEAN_ELEMENT_THEORY = SGP/SGP4

EPOCH          = 2026-02-14T01:13:40.548000
MEAN_MOTION    = 14.14592715
ECCENTRICITY   = .00031511
INCLINATION    = 70.9990
RA_OF_ASC_NODE = 282.1016
ARG_OF_PERICENTER = 67.7817
MEAN_ANOMALY   = 292.3640

EPHEMERIS_TYPE = 0
CLASSIFICATION_TYPE = U
NORAD_CAT_ID   = 28353
ELEMENT_SET_NO = 999
REV_AT_EPOCH   = 11949
BSTAR          = .18881102E-3
MEAN_MOTION_DOT = .315E-5
MEAN_MOTION_DDOT = 0

CCSDS_OMM_VERS = 2.0
CREATION_DATE  = 
ORIGINATOR     = 

OBJECT_NAME    = CZ-4B R/B
OBJECT_ID      = 2004-035C
CENTER_NAME    = EARTH
REF_FRAME      = TEME
TIME_SYSTEM    = UTC
MEAN_ELEMENT_THEORY = SGP/SGP4

EPOCH          = 2026-02-14T02:02:15.475776
MEAN_MOTION    = 15.28622474
ECCENTRICITY   = .00337542
INCLINATION    = 97.3541
RA_OF_ASC_NODE = 79.6147
ARG_OF_PERICENTER = 54.6665
MEAN_ANOMALY   = 305.7722

EPHEMERIS_TYPE = 0
CLASSIFICATION_TYPE = U
NORAD_CAT_ID   = 28415
ELEMENT_SET_NO = 999
REV_AT_EPOCH   = 17630
BSTAR          = .29609753E-3
MEAN_MOTION_DOT = .8309E-4
MEAN_MOTION_DDOT = 0

CCSDS_OMM_VERS = 2.0
CREATION_DATE  = 
ORIGINATOR     = 

OBJECT_NAME    = CZ-2C R/B
OBJECT_ID      = 2004-046B
CENTER_NAME    = EARTH
REF_FRAME      = TEME
TIME_SYSTEM    = UTC
MEAN_ELEMENT_THEORY = SGP/SGP4

EPOCH          = 2026-02-14T08:18:37.560384
MEAN_MOTION    = 14.26983939
ECCENTRICITY   = .0138463
INCLINATION    = 98.1994
RA_OF_ASC_NODE = 321.7806
ARG_OF_PERICENTER = 223.5798
MEAN_ANOMALY   = 135.4381

EPHEMERIS_TYPE = 0
CLASSIFICATION_TYPE = U
NORAD_CAT_ID   = 28480
ELEMENT_SET_NO = 999
REV_AT_EPOCH   = 10517
BSTAR          = .62777E-4
MEAN_MOTION_DOT = .127E-5
MEAN_MOTION_DDOT = 0

CCSDS_OMM_VERS = 2.0
CREATION_DATE  = 
ORIGINATOR     = 

OBJECT_NAME    = ARIANE 5 R/B
OBJECT_ID      = 2004-049H
CENTER_NAME    = EARTH
REF_FRAME      = TEME
TIME_SYSTEM    = UTC
MEAN_ELEMENT_THEORY = SGP/SGP4

EPOCH          = 2026-02-14T10:58:56.498304
MEAN_MOTION    = 14.85219724
ECCENTRICITY   = .0085378
INCLINATION    = 98.2588
RA_OF_ASC_NODE = 213.0514
ARG_OF_PERICENTER = 66.7954
MEAN_ANOMALY   = 294.2224

EPHEMERIS_TYPE = 0
CLASSIFICATION_TYPE = U
NORAD_CAT_ID   = 28499
ELEMENT_SET_NO = 999
REV_AT_EPOCH   = 14234
BSTAR          = .1197E-3
MEAN_MOTION_DOT = .1031E-4
MEAN_MOTION_DDOT = 0

CCSDS_OMM_VERS = 2.0
CREATION_DATE  = 
ORIGINATOR     = 

OBJECT_NAME    = CZ-2D R/B
OBJECT_ID      = 2005-024B
CENTER_NAME    = EARTH
REF_FRAME      = TEME
TIME_SYSTEM    = UTC
MEAN_ELEMENT_THEORY = SGP/SGP4

EPOCH          = 2026-02-14T00:35:57.494400
MEAN_MOTION    = 15.58035001
ECCENTRICITY   = .00076455
INCLINATION    = 97.3614
RA_OF_ASC_NODE = 59.3434
ARG_OF_PERICENTER = 103.3087
MEAN_ANOMALY   = 256.9022

EPHEMERIS_TYPE = 0
CLASSIFICATION_TYPE = U
NORAD_CAT_ID   = 28738
ELEMENT_SET_NO = 999
REV_AT_EPOCH   = 13609
BSTAR          = .51375816E-3
MEAN_MOTION_DOT = .38598E-3
MEAN_MOTION_DDOT = 0

