IDEFIX & ARIANE 42P R/B 
1 27422U 02021B   26045.42213623  .00000316  00000+0  13688-3 0  9990
2 27422  98.5846 344.3099 0010617 255.6700 104.3305 14.31009265240699
AQUA                    
1 27424U 02022A   26045.49181080  .00001181  00000+0  24577-3 0  9991
2 27424  98.4131  12.4422 0001317  49.4301  60.2593 14.61918761265344
CZ-4B R/B               
1 27432U 02024C   26045.16569542  .00000036  00000+0  41240-4 0  9994
2 27432  98.8894  98.6848 0051211  90.0252 336.0793 14.14543310225913
MIDORI II (ADEOS-II)    
1 27597U 02056A   26045.42196287  .00000361  00000+0  15985-3 0  9999
2 27597  98.7727   3.7451 0002189  74.2496 285.8926 14.29267679206971
H-2A R/B                
1 27601U 02056E   26045.47736120  .00000332  00000+0  13104-3 0  9995
2 27601  98.3159   6.7328 0069201 230.2092 238.4574 14.33744493210788
CZ-4B R/B               
1 28059U 03049C   26045.41492223  .00000542  00000+0  13588-3 0  9992
2 28059  98.6853  39.4114 0047201 303.6426  56.0271 14.54995138183210
CZ-2C R/B               
1 28222U 04012C   26045.11392545  .00048026  00000+0  55140-3 0  9997
2 28222  97.7298 108.2196 0015354  41.2179 319.0234 15.61778218200593
SL-16 R/B               
1 28353U 04021B   26045.05116375  .00000315  00000+0  18881-3 0  9990
2 28353  70.9990 282.1016 0003151  67.7817 292.3640 14.14592715119492
CZ-4B R/B               
1 28415U 04035C   26045.08490134  .00008309  00000+0  29610-3 0  9998
2 28415  97.3541  79.6147 0033754  54.6665 305.7722 15.28622474176303
CZ-2C R/B               
1 28480U 04046B   26045.34626806  .00000127  00000+0  62777-4 0  9990
2 28480  98.1994 321.7806 0138463 223.5798 135.4381 14.26983939105175
ARIANE 5 R/B            
1 28499U 04049H   26045.45759836  .00001031  00000+0  11970-3 0  9998
2 28499  98.2588 213.0514 0085378  66.7954 294.2224 14.85219724142340
CZ-2D R/B               
1 28738U 05024B   26045.02497100  .00038598  00000+0  51376-3 0  9996
2 28738  97.3614  59.3434 0007645 103.3087 256.9022 15.58035001136095
